0 DIAMANT DEB
1 02161U 66013G   13282.06335744  .00024556  00000-0  19249-2 0  2020
2 02161 034.0805 174.6780 0299572 185.2114 281.2374 14.70915341294446
0 DIAMANT DEB
1 02161U 66013G   13283.96033267  .00020362  00000-0  15940-2 0  2031
2 02161 034.0815 163.5344 0299461 201.5415 246.5571 14.70985687294727
0 DIAMANT DEB
1 02161U 66013G   13286.00718697  .00016724  00000-0  13081-2 0  2059
2 02161 034.0819 151.5130 0299321 219.1422 286.0171 14.71043218295024
0 DIAMANT DEB
1 02161U 66013G   13290.60214356  .00022057  00000-0  17186-2 0  2060
2 02161 034.0801 124.5148 0299069 258.5920 141.1672 14.71195881295697
0 DIAMANT DEB
1 02161U 66013G   13293.59076950  .00018461  00000-0  14336-2 0  2076
2 02161 034.0822 106.9477 0299296 284.2741 130.4501 14.71285074296145
0 DIAMANT DEB
1 02161U 66013G   13295.55850596  .00021386  00000-0  16660-2 0  2083
2 02161 034.0812 095.3834 0298259 301.1019 113.1841 14.71343492296433
